KUIPER-00027            
1 63740U 25088S   25247.91670139  .00005867  00000+0  44863-3 0  9992
2 63740  51.8901 198.4035 0002498 267.6965 240.6513 15.03188603  5652
KUIPER-00028            
1 63741U 25088T   25247.91670139 -.00673472  00000+0 -44422-1 0  9997
2 63741  51.8864 197.3002 0002466 240.5875  52.3269 15.09479328  5792
KUIPER-00029            
1 63742U 25088U   25247.91670139 -.00461161  00000+0 -25424-1 0  9999
2 63742  51.8870 196.7593 0004233 222.2764 278.3305 15.15727071  4514
KUIPER-00030            
1 63743U 25088V   25247.59942918  .00003234  00000+0  45246-3 0  9998
2 63743  51.8996 213.4205 0013748 181.7959 178.2956 14.79961071 20075
KUIPER-00031            
1 63744U 25088W   25247.91670139 -.01120063  00000+0 -98109-1 0  9995
2 63744  51.8859 199.2338 0002978 151.8660 208.8977 14.99456494  3289
KUIPER-00032            
1 63745U 25088X   25247.26272367  .00018700  00000+0  64989-3 0  9997
2 63745  51.8726 200.1867 0004728 158.9297 201.1882 15.29763713 20943
KUIPER-00033            
1 63746U 25088Y   25247.64923079  .00004809  00000+0  65974-3 0  9993
2 63746  51.8979 229.2622 0002822 297.6017  62.4659 14.79912850 20053
KUIPER-00034            
1 63747U 25088Z   25247.91670139 -.01422195  00000+0 -66375-1 0  9999
2 63747  51.8776 195.2961 0002117 115.6465  83.2822 15.22262672  4997
